<?xml version="1.0" encoding="UTF-8"?>
<seiscomp xmlns="http://geofon.gfz-potsdam.de/ns/seiscomp3-schema/0.13" version="0.13">
  <EventParameters>
    <pick publicID="20250328.030220.82-GO.AKHN.00.HHZ">
      <time>
        <value>2025-03-28T03:02:20.82Z</value>
      </time>
      <waveformID networkCode="GO" stationCode="AKHN" locationCode="00" channelCode="HHZ"/>
      <filterID>RMHP(10)&gt;&gt;BW(4,5,20)&gt;&gt;STALTA(1.0,30)</filterID>
      <methodID>Trigger</methodID>
      <phaseHint>P</phaseHint>
      <evaluationMode>automatic</evaluationMode>
      <creationInfo>
        <agencyID>GNSMC</agencyID>
        <author>scautopick@grigala</author>
        <creationTime>2025-03-28T03:02:32.318797Z</creationTime>
      </creationInfo>
    </pick>
    <pick publicID="Pick/20250328095227.318562.6268">
      <time>
        <value>2025-03-28T03:02:19.524627Z</value>
      </time>
      <waveformID networkCode="GO" stationCode="AKHN" locationCode="00" channelCode="HHZ"/>
      <filterID>RMHP(10)&gt;&gt;ITAPER(30)&gt;&gt;BW(3,0.7,2)</filterID>
      <onset>emergent</onset>
      <phaseHint>Pg</phaseHint>
      <evaluationMode>manual</evaluationMode>
      <creationInfo>
        <agencyID>GNSMC</agencyID>
        <author>scolv@grigala</author>
        <creationTime>2025-03-28T09:52:27.318769Z</creationTime>
      </creationInfo>
    </pick>
    <pick publicID="20250328.030224.85-GO.EMLK.00.HHZ">
      <time>
        <value>2025-03-28T03:02:24.85Z</value>
      </time>
      <waveformID networkCode="GO" stationCode="EMLK" locationCode="00" channelCode="HHZ"/>
      <filterID>RMHP(10)&gt;&gt;BW(4,5,20)&gt;&gt;STALTA(1.0,30)</filterID>
      <methodID>Trigger</methodID>
      <phaseHint>P</phaseHint>
      <evaluationMode>automatic</evaluationMode>
      <creationInfo>
        <agencyID>GNSMC</agencyID>
        <author>scautopick@grigala</author>
        <creationTime>2025-03-28T03:02:27.875862Z</creationTime>
      </creationInfo>
    </pick>
    <pick publicID="20250328.030224.91-GO.TRLT.00.HHZ">
      <time>
        <value>2025-03-28T03:02:24.91Z</value>
      </time>
      <waveformID networkCode="GO" stationCode="TRLT" locationCode="00" channelCode="HHZ"/>
      <filterID>RMHP(10)&gt;&gt;BW(4,5,20)&gt;&gt;STALTA(1.0,30)</filterID>
      <methodID>Trigger</methodID>
      <phaseHint>P</phaseHint>
      <evaluationMode>automatic</evaluationMode>
      <creationInfo>
        <agencyID>GNSMC</agencyID>
        <author>scautopick@grigala</author>
        <creationTime>2025-03-28T03:02:29.360385Z</creationTime>
      </creationInfo>
    </pick>
    <pick publicID="20250328.030224.83-GO.MZEG.00.HHZ">
      <time>
        <value>2025-03-28T03:02:24.83Z</value>
      </time>
      <waveformID networkCode="GO" stationCode="MZEG" locationCode="00" channelCode="HHZ"/>
      <filterID>RMHP(10)&gt;&gt;BW(4,5,20)&gt;&gt;STALTA(1.0,30)</filterID>
      <methodID>Trigger</methodID>
      <phaseHint>P</phaseHint>
      <evaluationMode>automatic</evaluationMode>
      <creationInfo>
        <agencyID>GNSMC</agencyID>
        <author>scautopick@grigala</author>
        <creationTime>2025-03-28T03:02:28.069418Z</creationTime>
      </creationInfo>
    </pick>
    <pick publicID="20250328.030230.92-GO.AZNN.00.HHZ">
      <time>
        <value>2025-03-28T03:02:30.92Z</value>
      </time>
      <waveformID networkCode="GO" stationCode="AZNN" locationCode="00" channelCode="HHZ"/>
      <filterID>RMHP(10)&gt;&gt;BW(4,5,20)&gt;&gt;STALTA(1.0,30)</filterID>
      <methodID>Trigger</methodID>
      <phaseHint>P</phaseHint>
      <evaluationMode>automatic</evaluationMode>
      <creationInfo>
        <agencyID>GNSMC</agencyID>
        <author>scautopick@grigala</author>
        <creationTime>2025-03-28T03:02:33.889034Z</creationTime>
      </creationInfo>
    </pick>
    <pick publicID="20250328.030227.34-A2.ZRSH.00.HHZ">
      <time>
        <value>2025-03-28T03:02:27.34Z</value>
      </time>
      <waveformID networkCode="A2" stationCode="ZRSH" locationCode="00" channelCode="HHZ"/>
      <filterID>RMHP(10)&gt;&gt;BW(4,5,20)&gt;&gt;STALTA(1.0,30)</filterID>
      <methodID>Trigger</methodID>
      <phaseHint>P</phaseHint>
      <evaluationMode>automatic</evaluationMode>
      <creationInfo>
        <agencyID>GNSMC</agencyID>
        <author>scautopick@grigala</author>
        <creationTime>2025-03-28T03:02:31.394663Z</creationTime>
      </creationInfo>
    </pick>
    <pick publicID="20250328.030227.99-XA.GO04..HHZ">
      <time>
        <value>2025-03-28T03:02:27.99Z</value>
      </time>
      <waveformID networkCode="XA" stationCode="GO04" channelCode="HHZ"/>
      <filterID>RMHP(10)&gt;&gt;BW(4,5,20)&gt;&gt;STALTA(1.0,30)</filterID>
      <methodID>Trigger</methodID>
      <phaseHint>P</phaseHint>
      <evaluationMode>automatic</evaluationMode>
      <creationInfo>
        <agencyID>GNSMC</agencyID>
        <author>scautopick@grigala</author>
        <creationTime>2025-03-28T03:02:33.635294Z</creationTime>
      </creationInfo>
    </pick>
    <pick publicID="20250328.030228.10-GO.MINA.00.HHZ">
      <time>
        <value>2025-03-28T03:02:28.1Z</value>
      </time>
      <waveformID networkCode="GO" stationCode="MINA" locationCode="00" channelCode="HHZ"/>
      <filterID>RMHP(10)&gt;&gt;BW(4,5,20)&gt;&gt;STALTA(1.0,30)</filterID>
      <methodID>Trigger</methodID>
      <phaseHint>P</phaseHint>
      <evaluationMode>automatic</evaluationMode>
      <creationInfo>
        <agencyID>GNSMC</agencyID>
        <author>scautopick@grigala</author>
        <creationTime>2025-03-28T03:02:30.931354Z</creationTime>
      </creationInfo>
    </pick>
    <pick publicID="20250328.030230.99-GO.ALIG.00.HHZ">
      <time>
        <value>2025-03-28T03:02:30.99Z</value>
      </time>
      <waveformID networkCode="GO" stationCode="ALIG" locationCode="00" channelCode="HHZ"/>
      <filterID>RMHP(10)&gt;&gt;BW(4,5,20)&gt;&gt;STALTA(1.0,30)</filterID>
      <methodID>Trigger</methodID>
      <phaseHint>P</phaseHint>
      <evaluationMode>automatic</evaluationMode>
      <creationInfo>
        <agencyID>GNSMC</agencyID>
        <author>scautopick@grigala</author>
        <creationTime>2025-03-28T03:02:46.999703Z</creationTime>
      </creationInfo>
    </pick>
    <pick publicID="20250328.030236.20-A2.SHMT.00.HHZ">
      <time>
        <value>2025-03-28T03:02:36.2Z</value>
      </time>
      <waveformID networkCode="A2" stationCode="SHMT" locationCode="00" channelCode="HHZ"/>
      <filterID>RMHP(10)&gt;&gt;BW(4,5,20)&gt;&gt;STALTA(1.0,30)</filterID>
      <methodID>Trigger</methodID>
      <phaseHint>P</phaseHint>
      <evaluationMode>automatic</evaluationMode>
      <creationInfo>
        <agencyID>GNSMC</agencyID>
        <author>scautopick@grigala</author>
        <creationTime>2025-03-28T03:02:39.531046Z</creationTime>
      </creationInfo>
    </pick>
    <pick publicID="20250328.030228.76-GO.DGRG.00.HHZ">
      <time>
        <value>2025-03-28T03:02:28.76Z</value>
      </time>
      <waveformID networkCode="GO" stationCode="DGRG" locationCode="00" channelCode="HHZ"/>
      <filterID>RMHP(10)&gt;&gt;BW(4,5,20)&gt;&gt;STALTA(1.0,30)</filterID>
      <methodID>Trigger</methodID>
      <phaseHint>P</phaseHint>
      <evaluationMode>automatic</evaluationMode>
      <creationInfo>
        <agencyID>GNSMC</agencyID>
        <author>scautopick@grigala</author>
        <creationTime>2025-03-28T03:02:39.947056Z</creationTime>
      </creationInfo>
    </pick>
    <pick publicID="20250328.030243.91-GO.MTAG.00.HHZ">
      <time>
        <value>2025-03-28T03:02:43.91Z</value>
      </time>
      <waveformID networkCode="GO" stationCode="MTAG" locationCode="00" channelCode="HHZ"/>
      <filterID>RMHP(10)&gt;&gt;BW(4,5,20)&gt;&gt;STALTA(1.0,30)</filterID>
      <methodID>Trigger</methodID>
      <phaseHint>P</phaseHint>
      <evaluationMode>automatic</evaluationMode>
      <creationInfo>
        <agencyID>GNSMC</agencyID>
        <author>scautopick@grigala</author>
        <creationTime>2025-03-28T03:02:46.662893Z</creationTime>
      </creationInfo>
    </pick>
    <pick publicID="20250328.030246.00-A2.TTJR.00.HHZ">
      <time>
        <value>2025-03-28T03:02:46.0000Z</value>
      </time>
      <waveformID networkCode="A2" stationCode="TTJR" locationCode="00" channelCode="HHZ"/>
      <filterID>RMHP(10)&gt;&gt;BW(4,5,20)&gt;&gt;STALTA(1.0,30)</filterID>
      <methodID>Trigger</methodID>
      <phaseHint>P</phaseHint>
      <evaluationMode>automatic</evaluationMode>
      <creationInfo>
        <agencyID>GNSMC</agencyID>
        <author>scautopick@grigala</author>
        <creationTime>2025-03-28T03:02:47.65976Z</creationTime>
      </creationInfo>
    </pick>
    <pick publicID="20250328.030247.86-GO.LPNG.00.HHZ">
      <time>
        <value>2025-03-28T03:02:47.86Z</value>
      </time>
      <waveformID networkCode="GO" stationCode="LPNG" locationCode="00" channelCode="HHZ"/>
      <filterID>RMHP(10)&gt;&gt;BW(4,5,20)&gt;&gt;STALTA(1.0,30)</filterID>
      <methodID>Trigger</methodID>
      <phaseHint>P</phaseHint>
      <evaluationMode>automatic</evaluationMode>
      <creationInfo>
        <agencyID>GNSMC</agencyID>
        <author>scautopick@grigala</author>
        <creationTime>2025-03-28T03:02:58.930864Z</creationTime>
      </creationInfo>
    </pick>
    <pick publicID="20250328.030247.27-AB.TOVZ.00.HHZ">
      <time>
        <value>2025-03-28T03:02:47.27Z</value>
      </time>
      <waveformID networkCode="AB" stationCode="TOVZ" locationCode="00" channelCode="HHZ"/>
      <filterID>RMHP(10)&gt;&gt;BW(4,5,20)&gt;&gt;STALTA(1.0,30)</filterID>
      <methodID>Trigger</methodID>
      <phaseHint>P</phaseHint>
      <evaluationMode>automatic</evaluationMode>
      <creationInfo>
        <agencyID>GNSMC</agencyID>
        <author>scautopick@grigala</author>
        <creationTime>2025-03-28T03:02:49.56174Z</creationTime>
      </creationInfo>
    </pick>
    <pick publicID="20250328.030250.33-GO.DALI.00.HHZ">
      <time>
        <value>2025-03-28T03:02:50.33Z</value>
      </time>
      <waveformID networkCode="GO" stationCode="DALI" locationCode="00" channelCode="HHZ"/>
      <filterID>RMHP(10)&gt;&gt;BW(4,5,20)&gt;&gt;STALTA(1.0,30)</filterID>
      <methodID>Trigger</methodID>
      <phaseHint>P</phaseHint>
      <evaluationMode>automatic</evaluationMode>
      <creationInfo>
        <agencyID>GNSMC</agencyID>
        <author>scautopick@grigala</author>
        <creationTime>2025-03-28T03:02:52.405618Z</creationTime>
      </creationInfo>
    </pick>
    <pick publicID="20250328.030251.52-GO.SHNK.00.HHZ">
      <time>
        <value>2025-03-28T03:02:51.52Z</value>
      </time>
      <waveformID networkCode="GO" stationCode="SHNK" locationCode="00" channelCode="HHZ"/>
      <filterID>RMHP(10)&gt;&gt;BW(4,5,20)&gt;&gt;STALTA(1.0,30)</filterID>
      <methodID>Trigger</methodID>
      <phaseHint>P</phaseHint>
      <evaluationMode>automatic</evaluationMode>
      <creationInfo>
        <agencyID>GNSMC</agencyID>
        <author>scautopick@grigala</author>
        <creationTime>2025-03-28T03:02:57.001337Z</creationTime>
      </creationInfo>
    </pick>
    <amplitude publicID="Amplitude/20250328094521.629184.6246">
      <type>ML</type>
      <amplitude>
        <value>0.016052300022559647</value>
        <lowerUncertainty>0.0009593753350948513</lowerUncertainty>
        <upperUncertainty>0.0009593753350948531</upperUncertainty>
      </amplitude>
      <timeWindow>
        <reference>2025-03-28T03:02:30.89Z</reference>
        <begin>-8.549999</begin>
        <end>44.07</end>
      </timeWindow>
      <snr>2.854273807037389</snr>
      <pickID>20250328.030227.34-A2.ZRSH.00.HHZ</pickID>
      <waveformID networkCode="A2" stationCode="ZRSH" locationCode="00" channelCode="HH"/>
      <creationInfo>
        <agencyID>GNSMC</agencyID>
        <author>scolv@grigala</author>
        <creationTime>2025-03-28T09:45:21.629232Z</creationTime>
      </creationInfo>
    </amplitude>
    <amplitude publicID="Amplitude/20250328094521.455624.6241">
      <type>ML</type>
      <amplitude>
        <value>0.0647063188100751</value>
        <lowerUncertainty>0.022364933262724082</lowerUncertainty>
        <upperUncertainty>0.022364933262724068</upperUncertainty>
      </amplitude>
      <timeWindow>
        <reference>2025-03-28T03:02:35.405Z</reference>
        <begin>-12.414999</begin>
        <end>40.815</end>
      </timeWindow>
      <snr>16.708403484416792</snr>
      <pickID>20250328.030227.99-XA.GO04..HHZ</pickID>
      <waveformID networkCode="XA" stationCode="GO04" channelCode="HH"/>
      <creationInfo>
        <agencyID>GNSMC</agencyID>
        <author>scolv@grigala</author>
        <creationTime>2025-03-28T09:45:21.455704Z</creationTime>
      </creationInfo>
    </amplitude>
    <amplitude publicID="Amplitude/20250328094521.597952.6245">
      <type>ML</type>
      <amplitude>
        <value>0.02484275272280464</value>
        <lowerUncertainty>0.003452137636495569</lowerUncertainty>
        <upperUncertainty>0.0034521376364955725</upperUncertainty>
      </amplitude>
      <timeWindow>
        <reference>2025-03-28T03:02:47.25Z</reference>
        <begin>-23.489999</begin>
        <end>55.85</end>
      </timeWindow>
      <snr>2.1888087569535486</snr>
      <pickID>20250328.030228.76-GO.DGRG.00.HHZ</pickID>
      <waveformID networkCode="GO" stationCode="DGRG" locationCode="00" channelCode="HH"/>
      <creationInfo>
        <agencyID>GNSMC</agencyID>
        <author>scolv@grigala</author>
        <creationTime>2025-03-28T09:45:21.598003Z</creationTime>
      </creationInfo>
    </amplitude>
    <amplitude publicID="Amplitude/20250328094521.501146.6243">
      <type>ML</type>
      <amplitude>
        <value>0.01874138249259949</value>
        <lowerUncertainty>0.0035173193337136276</lowerUncertainty>
        <upperUncertainty>0.003517319333713631</upperUncertainty>
      </amplitude>
      <timeWindow>
        <reference>2025-03-28T03:02:35.49Z</reference>
        <begin>-9.499999</begin>
        <end>49.7</end>
      </timeWindow>
      <snr>5.521200652669812</snr>
      <pickID>20250328.030230.99-GO.ALIG.00.HHZ</pickID>
      <waveformID networkCode="GO" stationCode="ALIG" locationCode="00" channelCode="HH"/>
      <creationInfo>
        <agencyID>GNSMC</agencyID>
        <author>scolv@grigala</author>
        <creationTime>2025-03-28T09:45:21.501178Z</creationTime>
      </creationInfo>
    </amplitude>
    <amplitude publicID="Amplitude/20250328094521.655491.6247">
      <type>ML</type>
      <amplitude>
        <value>0.019749449234866975</value>
        <lowerUncertainty>2.368689028931989e-05</lowerUncertainty>
        <upperUncertainty>2.368689028931642e-05</upperUncertainty>
      </amplitude>
      <timeWindow>
        <reference>2025-03-28T03:02:49.27Z</reference>
        <begin>-18.069999</begin>
        <end>51.33</end>
      </timeWindow>
      <snr>5.266943098096517</snr>
      <pickID>20250328.030236.20-A2.SHMT.00.HHZ</pickID>
      <waveformID networkCode="A2" stationCode="SHMT" locationCode="00" channelCode="HH"/>
      <creationInfo>
        <agencyID>GNSMC</agencyID>
        <author>scolv@grigala</author>
        <creationTime>2025-03-28T09:45:21.655551Z</creationTime>
      </creationInfo>
    </amplitude>
    <amplitude publicID="Amplitude/20250328094521.679028.6248">
      <type>ML</type>
      <amplitude>
        <value>0.01174425644264533</value>
        <lowerUncertainty>0.001615778340279643</lowerUncertainty>
        <upperUncertainty>0.0016157783402796447</upperUncertainty>
      </amplitude>
      <timeWindow>
        <reference>2025-03-28T03:03:07.21Z</reference>
        <begin>-26.209999</begin>
        <end>63.48</end>
      </timeWindow>
      <snr>2.714897090816314</snr>
      <pickID>20250328.030246.00-A2.TTJR.00.HHZ</pickID>
      <waveformID networkCode="A2" stationCode="TTJR" locationCode="00" channelCode="HH"/>
      <creationInfo>
        <agencyID>GNSMC</agencyID>
        <author>scolv@grigala</author>
        <creationTime>2025-03-28T09:45:21.679071Z</creationTime>
      </creationInfo>
    </amplitude>
    <amplitude publicID="Amplitude/20250328094521.685452.6249">
      <type>ML</type>
      <amplitude>
        <value>0.009613325826044914</value>
        <lowerUncertainty>0.0011333627827283203</lowerUncertainty>
        <upperUncertainty>0.0011333627827283203</upperUncertainty>
      </amplitude>
      <timeWindow>
        <reference>2025-03-28T03:03:07.81Z</reference>
        <begin>-25.539999</begin>
        <end>66.16</end>
      </timeWindow>
      <snr>3.0186295552067604</snr>
      <pickID>20250328.030247.27-AB.TOVZ.00.HHZ</pickID>
      <waveformID networkCode="AB" stationCode="TOVZ" locationCode="00" channelCode="HH"/>
      <creationInfo>
        <agencyID>GNSMC</agencyID>
        <author>scolv@grigala</author>
        <creationTime>2025-03-28T09:45:21.685501Z</creationTime>
      </creationInfo>
    </amplitude>
    <amplitude publicID="Amplitude/20250328094521.576348.6244">
      <type>ML</type>
      <amplitude>
        <value>0.01024353422620794</value>
        <lowerUncertainty>0.0009649303034378852</lowerUncertainty>
        <upperUncertainty>0.0009649303034378835</upperUncertainty>
      </amplitude>
      <timeWindow>
        <reference>2025-03-28T03:03:12.71Z</reference>
        <begin>-29.849999</begin>
        <end>60.25</end>
      </timeWindow>
      <snr>1.926972957859764</snr>
      <pickID>20250328.030247.86-GO.LPNG.00.HHZ</pickID>
      <waveformID networkCode="GO" stationCode="LPNG" locationCode="00" channelCode="HH"/>
      <creationInfo>
        <agencyID>GNSMC</agencyID>
        <author>scolv@grigala</author>
        <creationTime>2025-03-28T09:45:21.576409Z</creationTime>
      </creationInfo>
    </amplitude>
    <amplitude publicID="Amplitude/20250328095348.371823.6398">
      <type>ML</type>
      <amplitude>
        <value>0.31490629107537033</value>
        <lowerUncertainty>0.024315835931667473</lowerUncertainty>
        <upperUncertainty>0.024315835931667473</upperUncertainty>
      </amplitude>
      <timeWindow>
        <reference>2025-03-28T03:02:24.45Z</reference>
        <begin>-9.929999</begin>
        <end>31.94</end>
      </timeWindow>
      <snr>39.386640584376707</snr>
      <pickID>Pick/20250328095227.318562.6268</pickID>
      <waveformID networkCode="GO" stationCode="AKHN" locationCode="00" channelCode="HH"/>
      <creationInfo>
        <agencyID>GNSMC</agencyID>
        <author>scolv@grigala</author>
        <creationTime>2025-03-28T09:53:48.371886Z</creationTime>
      </creationInfo>
    </amplitude>
    <amplitude publicID="20250328.030236.20-A2.SHMT.00.HHZ.MLv">
      <type>MLv</type>
      <amplitude>
        <value>0.028643495111237517</value>
      </amplitude>
      <timeWindow>
        <reference>2025-03-28T03:02:49.24Z</reference>
        <begin>-18.04</begin>
        <end>136.96</end>
      </timeWindow>
      <snr>3.076788080925503</snr>
      <pickID>20250328.030236.20-A2.SHMT.00.HHZ</pickID>
      <waveformID networkCode="A2" stationCode="SHMT" locationCode="00" channelCode="HHZ"/>
      <creationInfo>
        <agencyID>GNSMC</agencyID>
        <author>scautopick@grigala</author>
        <creationTime>2025-03-28T03:05:07.971429Z</creationTime>
      </creationInfo>
    </amplitude>
    <amplitude publicID="20250328.030246.00-A2.TTJR.00.HHZ.MLv">
      <type>MLv</type>
      <amplitude>
        <value>0.02471941560839122</value>
      </amplitude>
      <timeWindow>
        <reference>2025-03-28T03:03:05.5Z</reference>
        <begin>-24.5</begin>
        <end>130.5</end>
      </timeWindow>
      <snr>1.1579511507654348</snr>
      <pickID>20250328.030246.00-A2.TTJR.00.HHZ</pickID>
      <waveformID networkCode="A2" stationCode="TTJR" locationCode="00" channelCode="HHZ"/>
      <creationInfo>
        <agencyID>GNSMC</agencyID>
        <author>scautopick@grigala</author>
        <creationTime>2025-03-28T03:05:20.081518Z</creationTime>
