<?xml version="1.0" encoding="UTF-8"?>
<seiscomp xmlns="http://geofon.gfz-potsdam.de/ns/seiscomp3-schema/0.10" version="0.10">
  <EventParameters>
    <pick publicID="20180413.002758.07-GO.LGD..HHZ">
      <time>
        <value>2018-04-13T00:27:58.07Z</value>
      </time>
      <waveformID networkCode="GO" stationCode="LGD" channelCode="HHZ"/>
      <filterID>RMHP(10)&gt;&gt;BW(4,5,20)&gt;&gt;STALTA(1.0,30)</filterID>
      <methodID>Trigger</methodID>
      <phaseHint>P</phaseHint>
      <evaluationMode>automatic</evaluationMode>
      <creationInfo>
        <agencyID>GNSMC</agencyID>
        <author>scautopick@albert-LP</author>
        <creationTime>2018-04-13T00:28:04.074763Z</creationTime>
      </creationInfo>
    </pick>
    <pick publicID="20180413.002759.60-GO.SHTL.00.HHZ">
      <time>
        <value>2018-04-13T00:27:59.6Z</value>
      </time>
      <waveformID networkCode="GO" stationCode="SHTL" locationCode="00" channelCode="HHZ"/>
      <filterID>RMHP(10)&gt;&gt;BW(4,5,20)&gt;&gt;STALTA(1.0,30)</filterID>
      <methodID>Trigger</methodID>
      <phaseHint>P</phaseHint>
      <evaluationMode>automatic</evaluationMode>
      <creationInfo>
        <agencyID>GNSMC</agencyID>
        <author>scautopick@albert-LP</author>
        <creationTime>2018-04-13T00:28:11.367213Z</creationTime>
      </creationInfo>
    </pick>
    <pick publicID="20180413.002805.61-XA.GO02..HHZ">
      <time>
        <value>2018-04-13T00:28:05.61Z</value>
      </time>
      <waveformID networkCode="XA" stationCode="GO02" channelCode="HHZ"/>
      <filterID>RMHP(10)&gt;&gt;BW(4,5,20)&gt;&gt;STALTA(1.0,30)</filterID>
      <methodID>Trigger</methodID>
      <phaseHint>P</phaseHint>
      <evaluationMode>automatic</evaluationMode>
      <creationInfo>
        <agencyID>GNSMC</agencyID>
        <author>scautopick@albert-LP</author>
        <creationTime>2018-04-13T00:28:41.86039Z</creationTime>
      </creationInfo>
    </pick>
    <pick publicID="20180413.002805.92-XA.GP02..HHZ">
      <time>
        <value>2018-04-13T00:28:05.929998Z</value>
      </time>
      <waveformID networkCode="XA" stationCode="GP02" channelCode="HHZ"/>
      <filterID>RMHP(10)&gt;&gt;BW(4,5,20)&gt;&gt;STALTA(1.0,30)</filterID>
      <methodID>Trigger</methodID>
      <phaseHint>P</phaseHint>
      <evaluationMode>automatic</evaluationMode>
      <creationInfo>
        <agencyID>GNSMC</agencyID>
        <author>scautopick@albert-LP</author>
        <creationTime>2018-04-13T00:28:09.750445Z</creationTime>
      </creationInfo>
    </pick>
    <pick publicID="20180413.002806.31-XA.GP03..HHZ">
      <time>
        <value>2018-04-13T00:28:06.319998Z</value>
      </time>
      <waveformID networkCode="XA" stationCode="GP03" channelCode="HHZ"/>
      <filterID>RMHP(10)&gt;&gt;BW(4,5,20)&gt;&gt;STALTA(1.0,30)</filterID>
      <methodID>Trigger</methodID>
      <phaseHint>P</phaseHint>
      <evaluationMode>automatic</evaluationMode>
      <creationInfo>
        <agencyID>GNSMC</agencyID>
        <author>scautopick@albert-LP</author>
        <creationTime>2018-04-13T00:28:10.744226Z</creationTime>
      </creationInfo>
    </pick>
    <pick publicID="20180413.002806.55-GO.MTEO..HHZ">
      <time>
        <value>2018-04-13T00:28:06.55Z</value>
      </time>
      <waveformID networkCode="GO" stationCode="MTEO" channelCode="HHZ"/>
      <filterID>RMHP(10)&gt;&gt;BW(4,5,20)&gt;&gt;STALTA(1.0,30)</filterID>
      <methodID>Trigger</methodID>
      <phaseHint>P</phaseHint>
      <evaluationMode>automatic</evaluationMode>
      <creationInfo>
        <agencyID>GNSMC</agencyID>
        <author>scautopick@albert-LP</author>
        <creationTime>2018-04-13T00:28:13.085046Z</creationTime>
      </creationInfo>
    </pick>
    <pick publicID="20180413.002806.75-XA.GP01..HHZ">
      <time>
        <value>2018-04-13T00:28:06.759998Z</value>
      </time>
      <waveformID networkCode="XA" stationCode="GP01" channelCode="HHZ"/>
      <filterID>RMHP(10)&gt;&gt;BW(4,5,20)&gt;&gt;STALTA(1.0,30)</filterID>
      <methodID>Trigger</methodID>
      <phaseHint>P</phaseHint>
      <evaluationMode>automatic</evaluationMode>
      <creationInfo>
        <agencyID>GNSMC</agencyID>
        <author>scautopick@albert-LP</author>
        <creationTime>2018-04-13T00:28:14.730736Z</creationTime>
      </creationInfo>
    </pick>
    <pick publicID="20180413.002806.82-XA.GP04..HHZ">
      <time>
        <value>2018-04-13T00:28:06.82Z</value>
      </time>
      <waveformID networkCode="XA" stationCode="GP04" channelCode="HHZ"/>
      <filterID>RMHP(10)&gt;&gt;BW(4,5,20)&gt;&gt;STALTA(1.0,30)</filterID>
      <methodID>Trigger</methodID>
      <phaseHint>P</phaseHint>
      <evaluationMode>automatic</evaluationMode>
      <creationInfo>
        <agencyID>GNSMC</agencyID>
        <author>scautopick@albert-LP</author>
        <creationTime>2018-04-13T00:28:15.736154Z</creationTime>
      </creationInfo>
    </pick>
    <pick publicID="20180413.002807.01-XA.GP09..HHZ">
      <time>
        <value>2018-04-13T00:28:07.01Z</value>
      </time>
      <waveformID networkCode="XA" stationCode="GP09" channelCode="HHZ"/>
      <filterID>RMHP(10)&gt;&gt;BW(4,5,20)&gt;&gt;STALTA(1.0,30)</filterID>
      <methodID>Trigger</methodID>
      <phaseHint>P</phaseHint>
      <evaluationMode>automatic</evaluationMode>
      <creationInfo>
        <agencyID>GNSMC</agencyID>
        <author>scautopick@albert-LP</author>
        <creationTime>2018-04-13T00:28:14.255383Z</creationTime>
      </creationInfo>
    </pick>
    <pick publicID="20180413.002807.74-XA.GP10..HHZ">
      <time>
        <value>2018-04-13T00:28:07.74Z</value>
      </time>
      <waveformID networkCode="XA" stationCode="GP10" channelCode="HHZ"/>
      <filterID>RMHP(10)&gt;&gt;BW(4,5,20)&gt;&gt;STALTA(1.0,30)</filterID>
      <methodID>Trigger</methodID>
      <phaseHint>P</phaseHint>
      <evaluationMode>automatic</evaluationMode>
      <creationInfo>
        <agencyID>GNSMC</agencyID>
        <author>scautopick@albert-LP</author>
        <creationTime>2018-04-13T00:28:17.892203Z</creationTime>
      </creationInfo>
    </pick>
    <pick publicID="20180413.002808.10-XA.GP05..HHZ">
      <time>
        <value>2018-04-13T00:28:08.1Z</value>
      </time>
      <waveformID networkCode="XA" stationCode="GP05" channelCode="HHZ"/>
      <filterID>RMHP(10)&gt;&gt;BW(4,5,20)&gt;&gt;STALTA(1.0,30)</filterID>
      <methodID>Trigger</methodID>
      <phaseHint>P</phaseHint>
      <evaluationMode>automatic</evaluationMode>
      <creationInfo>
        <agencyID>GNSMC</agencyID>
        <author>scautopick@albert-LP</author>
        <creationTime>2018-04-13T00:28:13.55413Z</creationTime>
      </creationInfo>
    </pick>
    <pick publicID="20180413.002808.37-XA.GP12..HHZ">
      <time>
        <value>2018-04-13T00:28:08.37Z</value>
      </time>
      <waveformID networkCode="XA" stationCode="GP12" channelCode="HHZ"/>
      <filterID>RMHP(10)&gt;&gt;BW(4,5,20)&gt;&gt;STALTA(1.0,30)</filterID>
      <methodID>Trigger</methodID>
      <phaseHint>P</phaseHint>
      <evaluationMode>automatic</evaluationMode>
      <creationInfo>
        <agencyID>GNSMC</agencyID>
        <author>scautopick@albert-LP</author>
        <creationTime>2018-04-13T00:28:19.023593Z</creationTime>
      </creationInfo>
    </pick>
    <pick publicID="20180413.002808.50-XA.GP07..HHZ">
      <time>
        <value>2018-04-13T00:28:08.5Z</value>
      </time>
      <waveformID networkCode="XA" stationCode="GP07" channelCode="HHZ"/>
      <filterID>RMHP(10)&gt;&gt;BW(4,5,20)&gt;&gt;STALTA(1.0,30)</filterID>
      <methodID>Trigger</methodID>
      <phaseHint>P</phaseHint>
      <evaluationMode>automatic</evaluationMode>
      <creationInfo>
        <agencyID>GNSMC</agencyID>
        <author>scautopick@albert-LP</author>
        <creationTime>2018-04-13T00:28:12.724666Z</creationTime>
      </creationInfo>
    </pick>
    <pick publicID="20180413.002808.68-XA.GP13..HHZ">
      <time>
        <value>2018-04-13T00:28:08.68Z</value>
      </time>
      <waveformID networkCode="XA" stationCode="GP13" channelCode="HHZ"/>
      <filterID>RMHP(10)&gt;&gt;BW(4,5,20)&gt;&gt;STALTA(1.0,30)</filterID>
      <methodID>Trigger</methodID>
      <phaseHint>P</phaseHint>
      <evaluationMode>automatic</evaluationMode>
      <creationInfo>
        <agencyID>GNSMC</agencyID>
        <author>scautopick@albert-LP</author>
        <creationTime>2018-04-13T00:28:18.722541Z</creationTime>
      </creationInfo>
    </pick>
    <pick publicID="20180413.002809.30-XA.GP14..HHZ">
      <time>
        <value>2018-04-13T00:28:09.3Z</value>
      </time>
      <waveformID networkCode="XA" stationCode="GP14" channelCode="HHZ"/>
      <filterID>RMHP(10)&gt;&gt;BW(4,5,20)&gt;&gt;STALTA(1.0,30)</filterID>
      <methodID>Trigger</methodID>
      <phaseHint>P</phaseHint>
      <evaluationMode>automatic</evaluationMode>
      <creationInfo>
        <agencyID>GNSMC</agencyID>
        <author>scautopick@albert-LP</author>
        <creationTime>2018-04-13T00:28:12.603536Z</creationTime>
      </creationInfo>
    </pick>
    <pick publicID="20180413.002809.31-GO.VSHL.00.HHZ">
      <time>
        <value>2018-04-13T00:28:09.31Z</value>
      </time>
      <waveformID networkCode="GO" stationCode="VSHL" locationCode="00" channelCode="HHZ"/>
      <filterID>RMHP(10)&gt;&gt;BW(4,5,20)&gt;&gt;STALTA(1.0,30)</filterID>
      <methodID>Trigger</methodID>
      <phaseHint>P</phaseHint>
      <evaluationMode>automatic</evaluationMode>
      <creationInfo>
        <agencyID>GNSMC</agencyID>
        <author>scautopick@albert-LP</author>
        <creationTime>2018-04-13T00:28:21.403523Z</creationTime>
      </creationInfo>
    </pick>
    <pick publicID="20180413.002809.32-XA.GP06..HHZ">
      <time>
        <value>2018-04-13T00:28:09.32Z</value>
      </time>
      <waveformID networkCode="XA" stationCode="GP06" channelCode="HHZ"/>
      <filterID>RMHP(10)&gt;&gt;BW(4,5,20)&gt;&gt;STALTA(1.0,30)</filterID>
      <methodID>Trigger</methodID>
      <phaseHint>P</phaseHint>
      <evaluationMode>automatic</evaluationMode>
      <creationInfo>
        <agencyID>GNSMC</agencyID>
        <author>scautopick@albert-LP</author>
        <creationTime>2018-04-13T00:28:16.635636Z</creationTime>
      </creationInfo>
    </pick>
    <pick publicID="20180413.002809.36-XA.GO03..HHZ">
      <time>
        <value>2018-04-13T00:28:09.36Z</value>
      </time>
      <waveformID networkCode="XA" stationCode="GO03" channelCode="HHZ"/>
      <filterID>RMHP(10)&gt;&gt;BW(4,5,20)&gt;&gt;STALTA(1.0,30)</filterID>
      <methodID>Trigger</methodID>
      <phaseHint>P</phaseHint>
      <evaluationMode>automatic</evaluationMode>
      <creationInfo>
        <agencyID>GNSMC</agencyID>
        <author>scautopick@albert-LP</author>
        <creationTime>2018-04-13T00:31:03.877348Z</creationTime>
      </creationInfo>
    </pick>
    <pick publicID="20180413.002809.74-XA.GP17..HHZ">
      <time>
        <value>2018-04-13T00:28:09.74Z</value>
      </time>
      <waveformID networkCode="XA" stationCode="GP17" channelCode="HHZ"/>
      <filterID>RMHP(10)&gt;&gt;BW(4,5,20)&gt;&gt;STALTA(1.0,30)</filterID>
      <methodID>Trigger</methodID>
      <phaseHint>P</phaseHint>
      <evaluationMode>automatic</evaluationMode>
      <creationInfo>
        <agencyID>GNSMC</agencyID>
        <author>scautopick@albert-LP</author>
        <creationTime>2018-04-13T00:28:14.739616Z</creationTime>
      </creationInfo>
    </pick>
    <pick publicID="20180413.002810.23-XA.GP15..HHZ">
      <time>
        <value>2018-04-13T00:28:10.23Z</value>
      </time>
      <waveformID networkCode="XA" stationCode="GP15" channelCode="HHZ"/>
      <filterID>RMHP(10)&gt;&gt;BW(4,5,20)&gt;&gt;STALTA(1.0,30)</filterID>
      <methodID>Trigger</methodID>
      <phaseHint>P</phaseHint>
      <evaluationMode>automatic</evaluationMode>
      <creationInfo>
        <agencyID>GNSMC</agencyID>
        <author>scautopick@albert-LP</author>
        <creationTime>2018-04-13T00:28:20.790639Z</creationTime>
      </creationInfo>
    </pick>
    <pick publicID="20180413.002810.36-XA.GP16..HHZ">
      <time>
        <value>2018-04-13T00:28:10.36Z</value>
      </time>
      <waveformID networkCode="XA" stationCode="GP16" channelCode="HHZ"/>
      <filterID>RMHP(10)&gt;&gt;BW(4,5,20)&gt;&gt;STALTA(1.0,30)</filterID>
      <methodID>Trigger</methodID>
      <phaseHint>P</phaseHint>
      <evaluationMode>automatic</evaluationMode>
      <creationInfo>
        <agencyID>GNSMC</agencyID>
        <author>scautopick@albert-LP</author>
        <creationTime>2018-04-13T00:28:18.034861Z</creationTime>
      </creationInfo>
    </pick>
    <pick publicID="20180413.002810.97-XA.GP19..HHZ">
      <time>
        <value>2018-04-13T00:28:10.97Z</value>
      </time>
      <waveformID networkCode="XA" stationCode="GP19" channelCode="HHZ"/>
      <filterID>RMHP(10)&gt;&gt;BW(4,5,20)&gt;&gt;STALTA(1.0,30)</filterID>
      <methodID>Trigger</methodID>
      <phaseHint>P</phaseHint>
      <evaluationMode>automatic</evaluationMode>
      <creationInfo>
        <agencyID>GNSMC</agencyID>
        <author>scautopick@albert-LP</author>
        <creationTime>2018-04-13T00:28:20.722723Z</creationTime>
      </creationInfo>
    </pick>
    <pick publicID="20180413.002811.05-GO.DGRG..HHZ">
      <time>
        <value>2018-04-13T00:28:11.05Z</value>
      </time>
      <waveformID networkCode="GO" stationCode="DGRG" channelCode="HHZ"/>
      <filterID>RMHP(10)&gt;&gt;BW(4,5,20)&gt;&gt;STALTA(1.0,30)</filterID>
      <methodID>Trigger</methodID>
      <phaseHint>P</phaseHint>
      <evaluationMode>automatic</evaluationMode>
      <creationInfo>
        <agencyID>GNSMC</agencyID>
        <author>scautopick@albert-LP</author>
        <creationTime>2018-04-13T00:28:17.007193Z</creationTime>
      </creationInfo>
    </pick>
    <pick publicID="20180413.002812.52-XA.GP22..HHZ">
      <time>
        <value>2018-04-13T00:28:12.52Z</value>
      </time>
      <waveformID networkCode="XA" stationCode="GP22" channelCode="HHZ"/>
      <filterID>RMHP(10)&gt;&gt;BW(4,5,20)&gt;&gt;STALTA(1.0,30)</filterID>
      <methodID>Trigger</methodID>
      <phaseHint>P</phaseHint>
      <evaluationMode>automatic</evaluationMode>
      <creationInfo>
        <agencyID>GNSMC</agencyID>
        <author>scautopick@albert-LP</author>
        <creationTime>2018-04-13T00:28:25.987956Z</creationTime>
      </creationInfo>
    </pick>
    <pick publicID="20180413.002812.83-XA.GP21..HHZ">
      <time>
        <value>2018-04-13T00:28:12.83Z</value>
      </time>
      <waveformID networkCode="XA" stationCode="GP21" channelCode="HHZ"/>
      <filterID>RMHP(10)&gt;&gt;BW(4,5,20)&gt;&gt;STALTA(1.0,30)</filterID>
      <methodID>Trigger</methodID>
      <phaseHint>P</phaseHint>
      <evaluationMode>automatic</evaluationMode>
      <creationInfo>
        <agencyID>GNSMC</agencyID>
        <author>scautopick@albert-LP</author>
        <creationTime>2018-04-13T00:28:20.752041Z</creationTime>
      </creationInfo>
    </pick>
    <pick publicID="20180413.002812.98-XA.GP23..HHZ">
      <time>
        <value>2018-04-13T00:28:12.98Z</value>
      </time>
      <waveformID networkCode="XA" stationCode="GP23" channelCode="HHZ"/>
      <filterID>RMHP(10)&gt;&gt;BW(4,5,20)&gt;&gt;STALTA(1.0,30)</filterID>
      <methodID>Trigger</methodID>
      <phaseHint>P</phaseHint>
      <evaluationMode>automatic</evaluationMode>
      <creationInfo>
        <agencyID>GNSMC</agencyID>
        <author>scautopick@albert-LP</author>
        <creationTime>2018-04-13T00:28:22.92692Z</creationTime>
      </creationInfo>
    </pick>
    <pick publicID="20180413.002813.04-XA.GP20..HHZ">
      <time>
        <value>2018-04-13T00:28:13.04Z</value>
      </time>
      <waveformID networkCode="XA" stationCode="GP20" channelCode="HHZ"/>
      <filterID>RMHP(10)&gt;&gt;BW(4,5,20)&gt;&gt;STALTA(1.0,30)</filterID>
      <methodID>Trigger</methodID>
      <phaseHint>P</phaseHint>
      <evaluationMode>automatic</evaluationMode>
      <creationInfo>
        <agencyID>GNSMC</agencyID>
        <author>scautopick@albert-LP</author>
        <creationTime>2018-04-13T00:28:24.815243Z</creationTime>
      </creationInfo>
    </pick>
    <pick publicID="20180413.002813.13-GO.SEAG..HHZ">
      <time>
        <value>2018-04-13T00:28:13.13Z</value>
      </time>
      <waveformID networkCode="GO" stationCode="SEAG" channelCode="HHZ"/>
      <filterID>RMHP(10)&gt;&gt;BW(4,5,20)&gt;&gt;STALTA(1.0,30)</filterID>
      <methodID>Trigger</methodID>
      <phaseHint>P</phaseHint>
      <evaluationMode>automatic</evaluationMode>
      <creationInfo>
        <agencyID>GNSMC</agencyID>
        <author>scautopick@albert-LP</author>
        <creationTime>2018-04-13T00:28:18.544308Z</creationTime>
      </creationInfo>
    </pick>
    <pick publicID="20180413.002813.57-XA.GP24..HHZ">
      <time>
        <value>2018-04-13T00:28:13.57Z</value>
      </time>
      <waveformID networkCode="XA" stationCode="GP24" channelCode="HHZ"/>
      <filterID>RMHP(10)&gt;&gt;BW(4,5,20)&gt;&gt;STALTA(1.0,30)</filterID>
      <methodID>Trigger</methodID>
      <phaseHint>P</phaseHint>
      <evaluationMode>automatic</evaluationMode>
      <creationInfo>
        <agencyID>GNSMC</agencyID>
        <author>scautopick@albert-LP</author>
        <creationTime>2018-04-13T00:28:18.735839Z</creationTime>
      </creationInfo>
    </pick>
    <pick publicID="20180413.002814.25-XA.GP26..HHZ">
      <time>
        <value>2018-04-13T00:28:14.25Z</value>
      </time>
      <waveformID networkCode="XA" stationCode="GP26" channelCode="HHZ"/>
      <filterID>RMHP(10)&gt;&gt;BW(4,5,20)&gt;&gt;STALTA(1.0,30)</filterID>
      <methodID>Trigger</methodID>
      <phaseHint>P</phaseHint>
      <evaluationMode>automatic</evaluationMode>
      <creationInfo>
        <agencyID>GNSMC</agencyID>
        <author>scautopick@albert-LP</author>
        <creationTime>2018-04-13T00:28:27.773456Z</creationTime>
      </creationInfo>
    </pick>
    <pick publicID="20180413.002814.99-XA.GP28..HHZ">
      <time>
        <value>2018-04-13T00:28:14.99Z</value>
      </time>
      <waveformID networkCode="XA" stationCode="GP28" channelCode="HHZ"/>
      <filterID>RMHP(10)&gt;&gt;BW(4,5,20)&gt;&gt;STALTA(1.0,30)</filterID>
      <methodID>Trigger</methodID>
      <phaseHint>P</phaseHint>
      <evaluationMode>automatic</evaluationMode>
      <creationInfo>
        <agencyID>GNSMC</agencyID>
        <author>scautopick@albert-LP</author>
        <creationTime>2018-04-13T00:28:27.633676Z</creationTime>
      </creationInfo>
    </pick>
    <pick publicID="20180413.002815.29-XA.GP27..HHZ">
      <time>
        <value>2018-04-13T00:28:15.29Z</value>
      </time>
      <waveformID networkCode="XA" stationCode="GP27" channelCode="HHZ"/>
      <filterID>RMHP(10)&gt;&gt;BW(4,5,20)&gt;&gt;STALTA(1.0,30)</filterID>
      <methodID>Trigger</methodID>
      <phaseHint>P</phaseHint>
      <evaluationMode>automatic</evaluationMode>
      <creationInfo>
        <agencyID>GNSMC</agencyID>
        <author>scautopick@albert-LP</author>
        <creationTime>2018-04-13T00:28:23.533563Z</creationTime>
      </creationInfo>
    </pick>
    <pick publicID="20180413.002815.33-XA.GP29..HHZ">
      <time>
        <value>2018-04-13T00:28:15.33Z</value>
      </time>
      <waveformID networkCode="XA" stationCode="GP29" channelCode="HHZ"/>
      <filterID>RMHP(10)&gt;&gt;BW(4,5,20)&gt;&gt;STALTA(1.0,30)</filterID>
      <methodID>Trigger</methodID>
      <phaseHint>P</phaseHint>
      <evaluationMode>automatic</evaluationMode>
      <creationInfo>
        <agencyID>GNSMC</agencyID>
        <author>scautopick@albert-LP</author>
        <creationTime>2018-04-13T00:53:20.956343Z</creationTime>
      </creationInfo>
    </pick>
    <pick publicID="20180413.002815.48-XA.GP30..HHZ">
      <time>
        <value>2018-04-13T00:28:15.48Z</value>
      </time>
      <waveformID networkCode="XA" stationCode="GP30" channelCode="HHZ"/>
