<?xml version="1.0" encoding="UTF-8" standalone="yes"?>
<!DOCTYPE earthquake SYSTEM "stationlist.dtd">
<stationlist created="" xmlns="ch.ethz.sed.shakemap.usgs.xml">
  <station code="DALI" name="DALI" netid="GO" source="GNSMC" insttype="" commtype="DIG" lat="41.2393" lon="45.8579">
    <comp name="20.HNZ">
      <acc value="0.0017970418" flag="0"/>
      <vel value="0.0003100560" flag="0"/>
      <psa03 value="0.0011864235" flag="0"/>
      <psa10 value="0.0001266098" flag="0"/>
      <psa30 value="0.0000291859" flag="0"/>
    </comp>
    <comp name="20.HNE">
      <acc value="0.0021041655" flag="0"/>
      <vel value="0.0004826718" flag="0"/>
      <psa03 value="0.0029021149" flag="0"/>
      <psa10 value="0.0001855813" flag="0"/>
      <psa30 value="0.0000395287" flag="0"/>
    </comp>
    <comp name="20.HNN">
      <acc value="0.0018225022" flag="0"/>
      <vel value="0.0005129815" flag="0"/>
      <psa03 value="0.0020081276" flag="0"/>
      <psa10 value="0.0002062057" flag="0"/>
      <psa30 value="0.0000356640" flag="0"/>
    </comp>
  </station>
  <station code="MTAG" name="MTAG" netid="GO" source="GNSMC" insttype="" commtype="DIG" lat="42.0927" lon="45.1637">
    <comp name="20.HNE">
      <acc value="0.0018671163" flag="0"/>
      <vel value="0.0001820048" flag="0"/>
      <psa03 value="0.0004691462" flag="0"/>
      <psa10 value="0.0000434812" flag="0"/>
      <psa30 value="0.0000289859" flag="0"/>
    </comp>
    <comp name="20.HNN">
      <acc value="0.0021462869" flag="0"/>
      <vel value="0.0002886382" flag="0"/>
      <psa03 value="0.0005083306" flag="0"/>
      <psa10 value="0.0000563270" flag="0"/>
      <psa30 value="0.0000297883" flag="0"/>
    </comp>
    <comp name="20.HNZ">
      <acc value="0.0016891208" flag="0"/>
      <vel value="0.0001310311" flag="0"/>
      <psa03 value="0.0002567085" flag="0"/>
      <psa10 value="0.0000388989" flag="0"/>
      <psa30 value="0.0000220920" flag="0"/>
    </comp>
  </station>
  <station code="VSHA" name="VSHA" netid="GO" source="GNSMC" insttype="CMG-5TC" commtype="DIG" lat="41.2302" lon="46.3998">
    <comp name="10.HNE">
      <acc value="0.0027941589" flag="0"/>
      <vel value="0.0010120433" flag="0"/>
      <psa03 value="0.0038986648" flag="0"/>
      <psa10 value="0.0002641520" flag="0"/>
      <psa30 value="0.0000909438" flag="0"/>
    </comp>
    <comp name="10.HNN">
      <acc value="0.0019893216" flag="0"/>
      <vel value="0.0005443985" flag="0"/>
      <psa03 value="0.0035672918" flag="0"/>
      <psa10 value="0.0003147539" flag="0"/>
      <psa30 value="0.0000791131" flag="0"/>
    </comp>
    <comp name="10.HNZ">
      <acc value="0.0043110329" flag="0"/>
      <vel value="0.0010861494" flag="0"/>
      <psa03 value="0.0046016474" flag="0"/>
      <psa10 value="0.0002481086" flag="0"/>
      <psa30 value="0.0000674308" flag="0"/>
    </comp>
  </station>
</stationlist>
